{"type": "FeatureCollection", "features": [ {"type": "Feature", "properties": {"norad_id": 66464, "name": "STARLINK-35435", "group": "last-30-days", "lat": -24.673003683747954, "lon": 30.56925103029655, "alt_km": 445.69971845642704, "timestamp": "2025-12-14T16:47:39.435650+00:00", "meta": {"OBJECT_NAME": "STARLINK-35435", "OBJECT_ID": "2025-262J", "EPOCH": "2025-12-13T22:00:00.999936", "MEAN_MOTION": 15.40667071, "ECCENTRICITY": 0.00015812, "INCLINATION": 43.0009, "RA_OF_ASC_NODE": 64.6177, "ARG_OF_PERICENTER": 274.3704, "MEAN_ANOMALY": 19.4826, "EPHEMERIS_TYPE": 0, "CLASSIFICATION_TYPE": "U", "NORAD_CAT_ID": 66464, "ELEMENT_SET_NO": 999, "REV_AT_EPOCH": 582, "BSTAR": -9.3289355e-05, "MEAN_MOTION_DOT": -4.194e-05, "MEAN_MOTION_DDOT": 0}, "tle": {"line1": "1 66464U 25262J   25347.91667824 -.00004194  00000+0 -93289-4 0  9991", "line2": "2 66464  43.0009  64.6177 0001581 274.3704  19.4826 15.40667071  5829"}}, "geometry": {"type": "Point", "coordinates": [30.56925103029655, -24.673003683747954]}}, {"type": "Feature", "properties": {"norad_id": 66465, "name": "STARLINK-35448", "group": "last-30-days", "lat": -0.29808300259380643, "lon": 59.693836857312576, "alt_km": 443.7893974307917, "timestamp": "2025-12-14T16:47:39.435661+00:00", "meta": {"OBJECT_NAME": "STARLINK-35448", "OBJECT_ID": "2025-262K", "EPOCH": "2025-12-13T22:00:00.999936", "MEAN_MOTION": 15.40648257, "ECCENTRICITY": 0.00014594, "INCLINATION": 43.0007, "RA_OF_ASC_NODE": 64.5271, "ARG_OF_PERICENTER": 271.1136, "MEAN_ANOMALY": 60.0638, "EPHEMERIS_TYPE": 0, "CLASSIFICATION_TYPE": "U", "NORAD_CAT_ID": 66465, "ELEMENT_SET_NO": 999, "REV_AT_EPOCH": 582, "BSTAR": 0.00053992063, "MEAN_MOTION_DOT": 0.00022277, "MEAN_MOTION_DDOT": 0}, "tle": {"line1": "1 66465U 25262K   25347.91667824  .00022277  00000+0  53992-3 0  9998", "line2": "2 66465  43.0007  64.5271 0001459 271.1136  60.0638 15.40648257  5828"}}, "geometry": {"type": "Point", "coordinates": [59.693836857312576, -0.29808300259380643]}}, {"type": "Feature", "properties": {"norad_id": 66466, "name": "STARLINK-35388", "group": "last-30-days", "lat": 8.140474510425072, "lon": 68.81205930663145, "alt_km": 442.87127908235834, "timestamp": "2025-12-14T16:47:39.435671+00:00", "meta": {"OBJECT_NAME": "STARLINK-35388", "OBJECT_ID": "2025-262L", "EPOCH": "2025-12-13T22:00:00.999936", "MEAN_MOTION": 15.40640664, "ECCENTRICITY": 0.0001652, "INCLINATION": 43.0005, "RA_OF_ASC_NODE": 64.4956, "ARG_OF_PERICENTER": 271.6452, "MEAN_ANOMALY": 71.9752, "EPHEMERIS_TYPE": 0, "CLASSIFICATION_TYPE": "U", "NORAD_CAT_ID": 66466, "ELEMENT_SET_NO": 999, "REV_AT_EPOCH": 582, "BSTAR": 0.00051799084, "MEAN_MOTION_DOT": 0.00021352, "MEAN_MOTION_DDOT": 0}, "tle": {"line1": "1 66466U 25262L   25347.91667824  .00021352  00000+0  51799-3 0  9995", "line2": "2 66466  43.0005  64.4956 0001652 271.6452  71.9752 15.40640664  5829"}}, "geometry": {"type": "Point", "coordinates": [68.81205930663145, 8.140474510425072]}}, {"type": "Feature", "properties": {"norad_id": 66467, "name": "STARLINK-35682", "group": "last-30-days", "lat": -8.745038451206609, "lon": 50.542394068322274, "alt_km": 444.75008467296175, "timestamp": "2025-12-14T16:47:39.435684+00:00", "meta": {"OBJECT_NAME": "STARLINK-35682", "OBJECT_ID": "2025-262M", "EPOCH": "2025-12-13T22:00:00.999936", "MEAN_MOTION": 15.40660572, "ECCENTRICITY": 0.00016741, "INCLINATION": 43.0008, "RA_OF_ASC_NODE": 64.5571, "ARG_OF_PERICENTER": 263.5203, "MEAN_ANOMALY": 55.2119, "EPHEMERIS_TYPE": 0, "CLASSIFICATION_TYPE": "U", "NORAD_CAT_ID": 66467, "ELEMENT_SET_NO": 999, "REV_AT_EPOCH": 582, "BSTAR": 9.1707722e-05, "MEAN_MOTION_DOT": 3.524e-05, "MEAN_MOTION_DDOT": 0}, "tle": {"line1": "1 66467U 25262M   25347.91667824  .00003524  00000+0  91708-4 0  9992", "line2": "2 66467  43.0008  64.5571 0001674 263.5203  55.2119 15.40660572  5827"}}, "geometry": {"type": "Point", "coordinates": [50.542394068322274, -8.745038451206609]}}, {"type": "Feature", "properties": {"norad_id": 66468, "name": "STARLINK-35331", "group": "last-30-days", "lat": 16.39601291495899, "lon": 78.35779156140896, "alt_km": 441.58914615592676, "timestamp": "2025-12-14T16:47:39.435695+00:00", "meta": {"OBJECT_NAME": "STARLINK-35331", "OBJECT_ID": "2025-262N", "EPOCH": "2025-12-13T22:00:00.999936", "MEAN_MOTION": 15.40670994, "ECCENTRICITY": 0.00014962, "INCLINATION": 43.0007, "RA_OF_ASC_NODE": 64.4651, "ARG_OF_PERICENTER": 285.7878, "MEAN_ANOMALY": 70.2565, "EPHEMERIS_TYPE": 0, "CLASSIFICATION_TYPE": "U", "NORAD_CAT_ID": 66468, "ELEMENT_SET_NO": 999, "REV_AT_EPOCH": 582, "BSTAR": 4.7829805e-05, "MEAN_MOTION_DOT": 1.693e-05, "MEAN_MOTION_DDOT": 0}, "tle": {"line1": "1 66468U 25262N   25347.91667824  .00001693  00000+0  47830-4 0  9995", "line2": "2 66468  43.0007  64.4651 0001496 285.7878  70.2565 15.40670994  5822"}}, "geometry": {"type": "Point", "coordinates": [78.35779156140896, 16.39601291495899]}}, {"type": "Feature", "properties": {"norad_id": 66469, "name": "STARLINK-35451", "group": "last-30-days", "lat": 8.897995774801345, "lon": -130.07168844478673, "alt_km": 412.48794966045807, "timestamp": "2025-12-14T16:47:39.435707+00:00", "meta": {"OBJECT_NAME": "STARLINK-35451", "OBJECT_ID": "2025-262P", "EPOCH": "2025-12-12T13:03:41.779584", "MEAN_MOTION": 15.50210236, "ECCENTRICITY": 0.00011033, "INCLINATION": 42.9999, "RA_OF_ASC_NODE": 72.2116, "ARG_OF_PERICENTER": 239.0773, "MEAN_ANOMALY": 120.9979, "EPHEMERIS_TYPE": 0, "CLASSIFICATION_TYPE": "U", "NORAD_CAT_ID": 66469, "ELEMENT_SET_NO": 999, "REV_AT_EPOCH": 553, "BSTAR": 0.0029076405, "MEAN_MOTION_DOT": 0.00171764, "MEAN_MOTION_DDOT": 0}, "tle": {"line1": "1 66469U 25262P   25346.54423356  .00171764  00000+0  29076-2 0  9991", "line2": "2 66469  42.9999  72.2116 0001103 239.0773 120.9979 15.50210236  5535"}}, "geometry": {"type": "Point", "coordinates": [-130.07168844478673, 8.897995774801345]}}, {"type": "Feature", "properties": {"norad_id": 66470, "name": "STARLINK-35655", "group": "last-30-days", "lat": 24.160828306674734, "lon": 88.69767982242928, "alt_km": 440.80095145806627, "timestamp": "2025-12-14T16:47:39.435718+00:00", "meta": {"OBJECT_NAME": "STARLINK-35655", "OBJECT_ID": "2025-262Q", "EPOCH": "2025-12-13T22:00:00.999936", "MEAN_MOTION": 15.40638249, "ECCENTRICITY": 0.0001493, "INCLINATION": 43.0007, "RA_OF_ASC_NODE": 64.4348, "ARG_OF_PERICENTER": 269.2202, "MEAN_ANOMALY": 99.2822, "EPHEMERIS_TYPE": 0, "CLASSIFICATION_TYPE": "U", "NORAD_CAT_ID": 66470, "ELEMENT_SET_NO": 999, "REV_AT_EPOCH": 582, "BSTAR": 0.00074227127, "MEAN_MOTION_DOT": 0.00030764, "MEAN_MOTION_DDOT": 0}, "tle": {"line1": "1 66470U 25262Q   25347.91667824  .00030764  00000+0  74227-3 0  9998", "line2": "2 66470  43.0007  64.4348 0001493 269.2202  99.2822 15.40638249  5827"}}, "geometry": {"type": "Point", "coordinates": [88.69767982242928, 24.160828306674734]}}, {"type": "Feature", "properties": {"norad_id": 66471, "name": "STARLINK-35569", "group": "last-30-days", "lat": 31.176900984910453, "lon": 100.37934336561145, "alt_km": 439.74345720333713, "timestamp": "2025-12-14T16:47:39.435729+00:00", "meta": {"OBJECT_NAME": "STARLINK-35569", "OBJECT_ID": "2025-262R", "EPOCH": "2025-12-13T22:00:00.999936", "MEAN_MOTION": 15.40683621, "ECCENTRICITY": 0.00012401, "INCLINATION": 43.0006, "RA_OF_ASC_NODE": 64.4036, "ARG_OF_PERICENTER": 266.7938, "MEAN_ANOMALY": 114.1462, "EPHEMERIS_TYPE": 0, "CLASSIFICATION_TYPE": "U", "NORAD_CAT_ID": 66471, "ELEMENT_SET_NO": 999, "REV_AT_EPOCH": 582, "BSTAR": 5.3101297e-05, "MEAN_MOTION_DOT": 1.914e-05, "MEAN_MOTION_DDOT": 0}, "tle": {"line1": "1 66471U 25262R   25347.91667824  .00001914  00000+0  53101-4 0  9993", "line2": "2 66471  43.0006  64.4036 0001240 266.7938 114.1462 15.40683621  5820"}}, "geometry": {"type": "Point", "coordinates": [100.37934336561145, 31.176900984910453]}}, {"type": "Feature", "properties": {"norad_id": 66472, "name": "STARLINK-35567", "group": "last-30-days", "lat": 41.025590826143706, "lon": 128.845742568399, "alt_km": 437.97917376709574, "timestamp": "2025-12-14T16:47:39.435740+00:00", "meta": {"OBJECT_NAME": "STARLINK-35567", "OBJECT_ID": "2025-262S", "EPOCH": "2025-12-13T22:00:00.999936", "MEAN_MOTION": 15.40681573, "ECCENTRICITY": 9.395e-05, "INCLINATION": 43.0006, "RA_OF_ASC_NODE": 64.3435, "ARG_OF_PERICENTER": 286.6798, "MEAN_ANOMALY": 119.1142, "EPHEMERIS_TYPE": 0, "CLASSIFICATION_TYPE": "U", "NORAD_CAT_ID": 66472, "ELEMENT_SET_NO": 999, "REV_AT_EPOCH": 582, "BSTAR": 0.00052016139, "MEAN_MOTION_DOT": 0.00021472, "MEAN_MOTION_DDOT": 0}, "tle": {"line1": "1 66472U 25262S   25347.91667824  .00021472  00000+0  52016-3 0  9998", "line2": "2 66472  43.0006  64.3435 0000939 286.6798 119.1142 15.40681573  5826"}}, "geometry": {"type": "Point", "coordinates": [128.845742568399, 41.025590826143706]}}, {"type": "Feature", "properties": {"norad_id": 66473, "name": "STARLINK-35568", "group": "last-30-days", "lat": -2.749860358489103, "lon": -117.48939679338089, "alt_km": 410.8516956546582, "timestamp": "2025-12-14T16:47:39.435752+00:00", "meta": {"OBJECT_NAME": "STARLINK-35568", "OBJECT_ID": "2025-262T", "EPOCH": "2025-12-11T07:39:08.069760", "MEAN_MOTION": 15.50526439, "ECCENTRICITY": 0.00047596, "INCLINATION": 42.9998, "RA_OF_ASC_NODE": 79.3576, "ARG_OF_PERICENTER": 252.6139, "MEAN_ANOMALY": 107.4201, "EPHEMERIS_TYPE": 0, "CLASSIFICATION_TYPE": "U", "NORAD_CAT_ID": 66473, "ELEMENT_SET_NO": 999, "REV_AT_EPOCH": 534, "BSTAR": 0.0038259112, "MEAN_MOTION_DOT": 0.00230458, "MEAN_MOTION_DDOT": 0}, "tle": {"line1": "1 66473U 25262T   25345.31884340  .00230458  00000+0  38259-2 0  9993", "line2": "2 66473  42.9998  79.3576 0004759 252.6139 107.4201 15.50526439  5346"}}, "geometry": {"type": "Point", "coordinates": [-117.48939679338089, -2.749860358489103]}}]}